O0001
N1 G21
N2 G91 (G28 X0 Y0 Z0)

N3 ( Schruppen1 )
N4 (2,5mm)
N5 T01 M06
N6 S12000 M03
N7 G90 G54 G00 X76. Y128.509
N8 G43 Z2.5 H01 M08
N9 G01 Z-.975 F411.48
N10 G17 X76.72 F822.96
N11 G03 I-.72 J0 F1645.92
N12 G01 X77.5
N13 G03 I-1.5 J0
N14 I-1.5 J0
N15 G01 X76.
N16 G00 Z2.5
N17 Z1.525
N18 G01 Z-1.613 F411.48
N19 X76.72 F822.96
N20 G03 I-.72 J0 F1645.92
N21 G01 X77.5
N22 G03 I-1.5 J0
N23 I-1.5 J0
N24 G01 X76.
N25 G00 Z2.5
N26 Z.887
N27 G01 Z-2.25 F411.48
N28 X76.72 F822.96
N29 G03 I-.72 J0 F1645.92
N30 G01 X77.5
N31 G03 I-1.5 J0
N32 I-1.5 J0
N33 G01 X76.
N34 G00 Z2.5
N35 Z.25
N36 G01 Z-2.5 F411.48
N37 X76.72 F822.96
N38 G03 I-.72 J0 F1645.92
N39 G01 X77.5
N40 G03 I-1.5 J0
N41 I-1.5 J0
N42 G01 X76.
N43 G00 Z2.5
N44 Z25.

N45 ( Schruppen1 )
N46 X8. Y82.5
N47 Z2.5
N48 G01 Z-.975 F411.48
N49 X8.07 F822.96
N50 G03 I-.07 J0 F1645.92
N51 G01 X8.85
N52 G03 I-.85 J0
N53 I-.85 J0
N54 G01 X8.
N55 G00 Z2.5
N56 Z1.525
N57 G01 Z-1.612 F411.48
N58 X8.07 F822.96
N59 G03 I-.07 J0 F1645.92
N60 G01 X8.85
N61 G03 I-.85 J0
N62 I-.85 J0
N63 G01 X8.
N64 G00 Z2.5
N65 Z.888
N66 G01 Z-2.25 F411.48
N67 X8.07 F822.96
N68 G03 I-.07 J0 F1645.92
N69 G01 X8.85
N70 G03 I-.85 J0
N71 I-.85 J0
N72 G01 X8.
N73 G00 Z2.5
N74 Z.25
N75 G01 Z-2.5 F411.48
N76 X8.07 F822.96
N77 G03 I-.07 J0 F1645.92
N78 G01 X8.85
N79 G03 I-.85 J0
N80 I-.85 J0
N81 G01 X8.
N82 G00 Z2.5
N83 Z25.
N84 X54. Y25.
N85 Z2.5
N86 G01 Z-.975 F411.48
N87 X54.07 F822.96
N88 G03 I-.07 J0 F1645.92
N89 G01 X54.85
N90 G03 I-.85 J0
N91 I-.85 J0
N92 G01 X54.
N93 G00 Z2.5
N94 Z1.525
N95 G01 Z-1.612 F411.48
N96 X54.07 F822.96
N97 G03 I-.07 J0 F1645.92
N98 G01 X54.85
N99 G03 I-.85 J0
N100 I-.85 J0
N101 G01 X54.
N102 G00 Z2.5
N103 Z.888
N104 G01 Z-2.25 F411.48
N105 X54.07 F822.96
N106 G03 I-.07 J0 F1645.92
N107 G01 X54.85
N108 G03 I-.85 J0
N109 I-.85 J0
N110 G01 X54.
N111 G00 Z2.5
N112 Z.25
N113 G01 Z-2.5 F411.48
N114 X54.07 F822.96
N115 G03 I-.07 J0 F1645.92
N116 G01 X54.85
N117 G03 I-.85 J0
N118 I-.85 J0
N119 G01 X54.
N120 G00 Z2.5
N121 Z25.

N122 ( Schruppen1 )
N123 X46. Y51.
N124 Z2.5
N125 G01 Z-.975 F411.48
N126 X46.22 F822.96
N127 G03 I-.22 J0 F1645.92
N128 G01 X47.
N129 G03 I-1. J0
N130 I-1. J0
N131 G01 X46.
N132 G00 Z2.5
N133 Z1.525
N134 G01 Z-1.612 F411.48
N135 X46.22 F822.96
N136 G03 I-.22 J0 F1645.92
N137 G01 X47.
N138 G03 I-1. J0
N139 I-1. J0
N140 G01 X46.
N141 G00 Z2.5
N142 Z.888
N143 G01 Z-2.25 F411.48
N144 X46.22 F822.96
N145 G03 I-.22 J0 F1645.92
N146 G01 X47.
N147 G03 I-1. J0
N148 I-1. J0
N149 G01 X46.
N150 G00 Z2.5
N151 Z.25
N152 G01 Z-2.5 F411.48
N153 X46.22 F822.96
N154 G03 I-.22 J0 F1645.92
N155 G01 X47.
N156 G03 I-1. J0
N157 I-1. J0
N158 G01 X46.
N159 G00 Z2.5
N160 Z25.
N161 X36. Y11.
N162 Z2.5
N163 G01 Z-.975 F411.48
N164 X36.22 F822.96
N165 G03 I-.22 J0 F1645.92
N166 G01 X37.
N167 G03 I-1. J0
N168 I-1. J0
N169 G01 X36.
N170 G00 Z2.5
N171 Z1.525
N172 G01 Z-1.612 F411.48
N173 X36.22 F822.96
N174 G03 I-.22 J0 F1645.92
N175 G01 X37.
N176 G03 I-1. J0
N177 I-1. J0
N178 G01 X36.
N179 G00 Z2.5
N180 Z.888
N181 G01 Z-2.25 F411.48
N182 X36.22 F822.96
N183 G03 I-.22 J0 F1645.92
N184 G01 X37.
N185 G03 I-1. J0
N186 I-1. J0
N187 G01 X36.
N188 G00 Z2.5
N189 Z.25
N190 G01 Z-2.5 F411.48
N191 X36.22 F822.96
N192 G03 I-.22 J0 F1645.92
N193 G01 X37.
N194 G03 I-1. J0
N195 I-1. J0
N196 G01 X36.
N197 G00 Z2.5
N198 Z25.
N199 X76. Y13.
N200 Z2.5
N201 G01 Z-.975 F411.48
N202 X76.22 F822.96
N203 G03 I-.22 J0 F1645.92
N204 G01 X77.
N205 G03 I-1. J0
N206 I-1. J0
N207 G01 X76.
N208 G00 Z2.5
N209 Z1.525
N210 G01 Z-1.612 F411.48
N211 X76.22 F822.96
N212 G03 I-.22 J0 F1645.92
N213 G01 X77.
N214 G03 I-1. J0
N215 I-1. J0
N216 G01 X76.
N217 G00 Z2.5
N218 Z.888
N219 G01 Z-2.25 F411.48
N220 X76.22 F822.96
N221 G03 I-.22 J0 F1645.92
N222 G01 X77.
N223 G03 I-1. J0
N224 I-1. J0
N225 G01 X76.
N226 G00 Z2.5
N227 Z.25
N228 G01 Z-2.5 F411.48
N229 X76.22 F822.96
N230 G03 I-.22 J0 F1645.92
N231 G01 X77.
N232 G03 I-1. J0
N233 I-1. J0
N234 G01 X76.
N235 G00 Z2.5
N236 Z25.
N238
N240 M0

N237 ( Konturfr sen1 )
N238 X60.251 Y75.705
N239 Z1.
N240 G41 D21 G01 X60.968 Y76.422 Z.996 F1234.44
N241 G03 X61.025 Y76.56 I-.138 J.138
N242 G01 Y76.755 Z.995 F1645.92
N243 Y128.509 Z.816
N244 G02 X72. Y139.484 Z.756 I10.975 J0
N245 G01 X77. Z.739
N246 G02 X87.975 Y128.509 Z.679 I0 J-10.975
N247 G01 Y128.246 Z.678
N248 G02 X79.744 Y117.619 Z.628 I-10.975 J0
N249 G03 X72.975 Y108.881 Z.587 I2.256 J-8.738
N250 G01 Y93.246 Z.533
N251 G03 X82. Y84.221 Z.484 I9.025 J0
N252 G02 X87.975 Y78.246 Z.451 I0 J-5.975
N253 G01 Y10. Z.215
N254 G02 X77. Y-.975 Z.155 I-10.975 J0
N255 G01 X30. Z-.008
N256 G02 X19.025 Y10. Z-.068 I0 J10.975
N257 G01 Y20. Z-.102
N258 G03 X10. Y29.025 Z-.151 I-9.025 J0
N259 G02 X-.975 Y40. Z-.211 I0 J10.975
N260 G01 Y82. Z-.356
N261 G02 X16.975 Z-.454 I8.975 J0
N262 G01 Y68. Z-.503
N263 G03 X24. Y60.975 Z-.541 I7.025 J0
N264 G01 X50. Z-.631
N265 G02 X60.975 Y50. Z-.691 I0 J-10.975
N266 G01 Y25.975 Z-.774
N267 X61.025
N268 Y76.755 Z-.95
N269 Y128.509 Z-1.04
N270 G02 X72. Y139.484 Z-1.07 I10.975 J0
N271 G01 X77. Z-1.078
N272 G02 X87.975 Y128.509 Z-1.108 I0 J-10.975
N273 G01 Y128.246 Z-1.109
N274 G02 X79.744 Y117.619 Z-1.134 I-10.975 J0
N275 G03 X72.975 Y108.881 Z-1.155 I2.256 J-8.738
N276 G01 Y93.246 Z-1.182
N277 G03 X82. Y84.221 Z-1.206 I9.025 J0
N278 G02 X87.975 Y78.246 Z-1.223 I0 J-5.975
N279 G01 Y10. Z-1.341
N280 G02 X77. Y-.975 Z-1.371 I-10.975 J0
N281 G01 X30. Z-1.453
N282 G02 X19.025 Y10. Z-1.483 I0 J10.975
N283 G01 Y20. Z-1.5
N284 G03 X10. Y29.025 Z-1.525 I-9.025 J0
N285 G02 X-.975 Y40. Z-1.555 I0 J10.975
N286 G01 Y82. Z-1.628
N287 G02 X16.975 Z-1.676 I8.975 J0
N288 G01 Y68. Z-1.701
N289 G03 X24. Y60.975 Z-1.72 I7.025 J0
N290 G01 X50. Z-1.765
N291 G02 X60.975 Y50. Z-1.795 I0 J-10.975
N292 G01 Y25.975 Z-1.837
N293 X61.025
T02 M06
N294 Y76.755 Z-1.925
N295 Y128.509 Z-2.015
N296 G02 X72. Y139.484 Z-2.045 I10.975 J0
N297 G01 X77. Z-2.053
N298 G02 X87.975 Y128.509 Z-2.083 I0 J-10.975
N299 G01 Y128.246 Z-2.084
N300 G02 X79.744 Y117.619 Z-2.109 I-10.975 J0
N301 G03 X72.975 Y108.881 Z-2.13 I2.256 J-8.738
N302 G01 Y93.246 Z-2.157
N303 G03 X82. Y84.221 Z-2.181 I9.025 J0
N304 G02 X87.975 Y78.246 Z-2.198 I0 J-5.975
N305 G01 Y10. Z-2.316
N306 G02 X77. Y-.975 Z-2.346 I-10.975 J0
N307 G01 X30. Z-2.428
N308 G02 X19.025 Y10. Z-2.458 I0 J10.975
N309 G01 Y20. Z-2.475
N310 G03 X10. Y29.025 Z-2.5 I-9.025 J0
N311 G02 X9.804 Y29.027 I0 J10.975
N312 X-.975 Y40. I.196 J10.973
N313 G01 Y82.
N314 G02 X16.975 I8.975 J0
N315 G01 Y68.
N316 G03 X24. Y60.975 I7.025 J0
N317 G01 X50.
N318 G02 X60.975 Y50. I0 J-10.975
N319 G01 Y25.975
N320 X61.025
N321 Y128.509
N322 G02 X72. Y139.484 I10.975 J0
N323 G01 X77.
N324 G02 X87.975 Y128.509 I0 J-10.975
N325 G01 Y128.246
N326 G02 X79.744 Y117.619 I-10.975 J0
N327 G03 X72.975 Y108.881 I2.256 J-8.738
N328 G01 Y93.246
N329 G03 X82. Y84.221 I9.025 J0
N330 G02 X87.975 Y78.246 I0 J-5.975
N331 G01 Y10.
N332 G02 X77. Y-.975 I-10.975 J0
N333 G01 X30.
N334 G02 X19.025 Y10. I0 J10.975
N335 G01 Y20.
N336 G03 X10. Y29.025 I-9.025 J0
N337 G02 X9.609 Y29.032 I0 J10.975
N338 G03 X9.469 Y28.98 I-.007 J-.195
N339 G40 G01 X8.727 Y28.289
N340 G00 Z1.
N341 Z25. M09
N342 G91 (G28 Z0)
N343 (G28 X0 Y0)
N344 M30
